start=new Date('2022-04-19T00:00:00.000Z').valueOf();
sats=[{"MEAN_ELEMENT_THEORY":"SGP4","PERIOD":"95.593","OBJECT_ID":"2020-019AS","PERIAPSIS":"546.045","REF_FRAME":"TEME","RCS_SIZE":"LARGE","TLE_LINE2":"2 45400  53.0542  38.4596 0001747  64.2175 295.8994 15.06386364115615","FILE":"3406909","MEAN_ANOMALY":"295.8994","APOAPSIS":"548.465","BSTAR":"0.00130480000000","INCLINATION":"53.0542","ARG_OF_PERICENTER":"64.2175","REV_AT_EPOCH":"11561","ELEMENT_SET_NO":"999","COUNTRY_CODE":"US","MEAN_MOTION_DDOT":"0.0000000000000","MEAN_MOTION":"15.06386364","DECAY_DATE":null,"EPOCH":"2022-04-18T02:00:00.232992","CENTER_NAME":"EARTH","TLE_LINE1":"1 45400U 20019AS  22108.08333603  .00019200  00000-0  13048-2 0  9994","OBJECT_TYPE":"PAYLOAD","MEAN_MOTION_DOT":"0.00019200","EPHEMERIS_TYPE":"0","LAUNCH_DATE":"2020-03-18","OBJECT_NAME":"STARLINK-1213","GP_ID":"201543932","CLASSIFICATION_TYPE":"U","TIME_SYSTEM":"UTC","SEMIMAJOR_AXIS":"6925.390","ECCENTRICITY":"0.00017470","SITE":"AFETR","NORAD_CAT_ID":"45400","RA_OF_ASC_NODE":"38.4596"},{"ARG_OF_PERICENTER":"59.0087","REV_AT_EPOCH":"11580","ELEMENT_SET_NO":"999","COUNTRY_CODE":"US","MEAN_MOTION_DDOT":"0.0000000000000","MEAN_MOTION":"15.06395957","DECAY_DATE":null,"EPOCH":"2022-04-18T21:01:08.765760","CENTER_NAME":"EARTH","TLE_LINE1":"1 45401U 20019AT  22108.87579590  .00001934  00000-0  14869-3 0  9997","OBJECT_TYPE":"PAYLOAD","MEAN_MOTION_DOT":"0.00001934","EPHEMERIS_TYPE":"0","LAUNCH_DATE":"2020-03-18","OBJECT_NAME":"STARLINK-1256","GP_ID":"201577635","TIME_SYSTEM":"UTC","CLASSIFICATION_TYPE":"U","SEMIMAJOR_AXIS":"6925.361","ECCENTRICITY":"0.00014950","SITE":"AFETR","NORAD_CAT_ID":"45401","RA_OF_ASC_NODE":"34.9018","MEAN_ELEMENT_THEORY":"SGP4","PERIOD":"95.592","OBJECT_ID":"2020-019AT","PERIAPSIS":"546.191","REF_FRAME":"TEME","RCS_SIZE":"LARGE","TLE_LINE2":"2 45401  53.0564  34.9018 0001495  59.0087 301.1049 15.06395957115805","FILE":"3407402","MEAN_ANOMALY":"301.1049","APOAPSIS":"548.261","BSTAR":"0.00014869000000","INCLINATION":"53.0564"},{"CLASSIFICATION_TYPE":"U","TIME_SYSTEM":"UTC","SEMIMAJOR_AXIS":"6925.289","OBJECT_NAME":"STARLINK-1257","GP_ID":"201577886","EPHEMERIS_TYPE":"0","LAUNCH_DATE":"2020-03-18","RA_OF_ASC_NODE":"34.9109","SITE":"AFETR","NORAD_CAT_ID":"45402","ECCENTRICITY":"0.00015160","MEAN_MOTION_DDOT":"0.0000000000000","MEAN_MOTION":"15.06419536","ELEMENT_SET_NO":"999","COUNTRY_CODE":"US","ARG_OF_PERICENTER":"78.0707","REV_AT_EPOCH":"11581","MEAN_MOTION_DOT":"0.00015364","TLE_LINE1":"1 45402U 20019AU  22108.87211756  .00015364  00000-0  10475-2 0  9995","OBJECT_TYPE":"PAYLOAD","EPOCH":"2022-04-18T20:55:50.957184","CENTER_NAME":"EARTH","DECAY_DATE":null,"MEAN_ANOMALY":"282.0452","FILE":"3407402","INCLINATION":"53.0557","APOAPSIS":"548.204","BSTAR":"0.00104750000000","PERIOD":"95.591","OBJECT_ID":"2020-019AU","MEAN_ELEMENT_THEORY":"SGP4","TLE_LINE2":"2 45402  53.0557  34.9109 0001516  78.0707 282.0452 15.06419536115819","RCS_SIZE":"LARGE","PERIAPSIS":"546.104","REF_FRAME":"TEME"},{"PERIAPSIS":"546.138","REF_FRAME":"TEME","RCS_SIZE":"LARGE","TLE_LINE2":"2 45403  53.0556  36.6485 0001565  65.4848 294.6304 15.06397303115749","MEAN_ELEMENT_THEORY":"SGP4","PERIOD":"95.592","OBJECT_ID":"2020-019AV","APOAPSIS":"548.306","BSTAR":"0.00009474000000","INCLINATION":"53.0556","FILE":"3406909","MEAN_ANOMALY":"294.6304","DECAY_DATE":null,"CENTER_NAME":"EARTH","EPOCH":"2022-04-18T11:43:49.288224","TLE_LINE1":"1 45403U 20019AV  22108.48876491  .00001130  00000-0  94740-4 0  9991","OBJECT_TYPE":"PAYLOAD","MEAN_MOTION_DOT":"0.00001130","ARG_OF_PERICENTER":"65.4848","REV_AT_EPOCH":"11574","ELEMENT_SET_NO":"999","COUNTRY_CODE":"US","MEAN_MOTION_DDOT":"0.0000000000000","MEAN_MOTION":"15.06397303","ECCENTRICITY":"0.00015650","SITE":"AFETR","NORAD_CAT_ID":"45403","RA_OF_ASC_NODE":"36.6485","EPHEMERIS_TYPE":"0","LAUNCH_DATE":"2020-03-18","OBJECT_NAME":"STARLINK-1259","GP_ID":"201543185","CLASSIFICATION_TYPE":"U","TIME_SYSTEM":"UTC","SEMIMAJOR_AXIS":"6925.357"},{"SITE":"AFETR","NORAD_CAT_ID":"45404","RA_OF_ASC_NODE":"35.0916","ECCENTRICITY":"0.00017640","OBJECT_NAME":"STARLINK-1260","GP_ID":"201576885","TIME_SYSTEM":"UTC","CLASSIFICATION_TYPE":"U","SEMIMAJOR_AXIS":"6925.335","EPHEMERIS_TYPE":"0","LAUNCH_DATE":"2020-03-18","TLE_LINE1":"1 45404U 20019AW  22108.83156558  .00003102  00000-0  22704-3 0  9997","OBJECT_TYPE":"PAYLOAD","MEAN_MOTION_DOT":"0.00003102","DECAY_DATE":null,"EPOCH":"2022-04-18T19:57:27.266112","CENTER_NAME":"EARTH","MEAN_MOTION_DDOT":"0.0000000000000","MEAN_MOTION":"15.06404384","ARG_OF_PERICENTER":"65.0698","REV_AT_EPOCH":"11570","ELEMENT_SET_NO":"999","COUNTRY_CODE":"US","APOAPSIS":"548.422","BSTAR":"0.00022704000000","INCLINATION":"53.0573","MEAN_ANOMALY":"295.0474","FILE":"3407402","RCS_SIZE":"LARGE","TLE_LINE2":"2 45404  53.0573  35.0916 0001764  65.0698 295.0474 15.06404384115708","PERIAPSIS":"545.978","REF_FRAME":"TEME","PERIOD":"95.592","OBJECT_ID":"2020-019AW","MEAN_ELEMENT_THEORY":"SGP4"},{"REF_FRAME":"TEME","PERIAPSIS":"546.204","TLE_LINE2":"2 45405  53.0574  34.8590 0001445  73.2193 286.8955 15.06402771115713","RCS_SIZE":"LARGE","MEAN_ELEMENT_THEORY":"SGP4","OBJECT_ID":"2020-019AX","PERIOD":"95.592","INCLINATION":"53.0574","BSTAR":"0.00026195000000","APOAPSIS":"548.206","FILE":"3407402","MEAN_ANOMALY":"286.8955","CENTER_NAME":"EARTH","EPOCH":"2022-04-18T21:11:44.981664","DECAY_DATE":null,"MEAN_MOTION_DOT":"0.00003623","OBJECT_TYPE":"PAYLOAD","TLE_LINE1":"1 45405U 20019AX  22108.88315951  .00003623  00000-0  26195-3 0  9993","COUNTRY_CODE":"US","ELEMENT_SET_NO":"999","REV_AT_EPOCH":"11571","ARG_OF_PERICENTER":"73.2193","MEAN_MOTION":"15.06402771","MEAN_MOTION_DDOT":"0.0000000000000","ECCENTRICITY":"0.00014450","RA_OF_ASC_NODE":"34.8590","NORAD_CAT_ID":"45405","SITE":"AFETR","LAUNCH_DATE":"2020-03-18","EPHEMERIS_TYPE":"0","SEMIMAJOR_AXIS":"6925.340","TIME_SYSTEM":"UTC","CLASSIFICATION_TYPE":"U","GP_ID":"201577135","OBJECT_NAME":"STARLINK-1263"},{"ELEMENT_SET_NO":"999","COUNTRY_CODE":"US","ARG_OF_PERICENTER":"53.7699","REV_AT_EPOCH":"11565","MEAN_MOTION_DDOT":"0.0000000000000","MEAN_MOTION":"15.06397892","CENTER_NAME":"EARTH","EPOCH":"2022-04-18T11:49:07.912416","DECAY_DATE":null,"MEAN_MOTION_DOT":"0.00001840","TLE_LINE1":"1 45406U 20019AY  22108.49245269  .00001840  00000-0  14238-3 0  9999","OBJECT_TYPE":"PAYLOAD","EPHEMERIS_TYPE":"0","LAUNCH_DATE":"2020-03-18","CLASSIFICATION_TYPE":"U","TIME_SYSTEM":"UTC","SEMIMAJOR_AXIS":"6925.355","OBJECT_NAME":"STARLINK-1265","GP_ID":"201542935","ECCENTRICITY":"0.00016740","RA_OF_ASC_NODE":"36.6079","SITE":"AFETR","NORAD_CAT_ID":"45406","MEAN_ELEMENT_THEORY":"SGP4","PERIOD":"95.592","OBJECT_ID":"2020-019AY","PERIAPSIS":"546.061","REF_FRAME":"TEME","TLE_LINE2":"2 45406  53.0562  36.6079 0001674  53.7699 306.3444 15.06397892115652","RCS_SIZE":"LARGE","FILE":"3406909","MEAN_ANOMALY":"306.3444","INCLINATION":"53.0562","APOAPSIS":"548.379","BSTAR":"0.00014238000000"},{"COUNTRY_CODE":"US","ELEMENT_SET_NO":"999","REV_AT_EPOCH":"11565","ARG_OF_PERICENTER":"80.7628","MEAN_MOTION":"15.06425488","MEAN_MOTION_DDOT":"0.0000000000000","CENTER_NAME":"EARTH","EPOCH":"2022-04-18T12:09:01.107648","DECAY_DATE":null,"MEAN_MOTION_DOT":"0.00023155","OBJECT_TYPE":"PAYLOAD","TLE_LINE1":"1 45407U 20019AZ  22108.50626282  .00023155  00000-0  15672-2 0  9995","LAUNCH_DATE":"2020-03-18","EPHEMERIS_TYPE":"0","SEMIMAJOR_AXIS":"6925.270","CLASSIFICATION_TYPE":"U","TIME_SYSTEM":"UTC","GP_ID":"201557058","OBJECT_NAME":"STARLINK-1275","ECCENTRICITY":"0.00014850","RA_OF_ASC_NODE":"36.5601","NORAD_CAT_ID":"45407","SITE":"AFETR","MEAN_ELEMENT_THEORY":"SGP4","OBJECT_ID":"2020-019AZ","PERIOD":"95.591","REF_FRAME":"TEME","PERIAPSIS":"546.107","TLE_LINE2":"2 45407  53.0562  36.5601 0001485  80.7628 279.3529 15.06425488115651","RCS_SIZE":"LARGE","FILE":"3407308","MEAN_ANOMALY":"279.3529","INCLINATION":"53.0562","BSTAR":"0.00156720000000","APOAPSIS":"548.164"},{"FILE":"3407402","MEAN_ANOMALY":"305.0164","APOAPSIS":"548.340","BSTAR":"0.00060018000000","INCLINATION":"53.0541","MEAN_ELEMENT_THEORY":"SGP4","PERIOD":"95.592","OBJECT_ID":"2020-019BA","PERIAPSIS":"546.093","REF_FRAME":"TEME","RCS_SIZE":"LARGE","TLE_LINE2":"2 45408  53.0541  64.9979 0001622  55.0977 305.0164 15.06399067115292","EPHEMERIS_TYPE":"0","LAUNCH_DATE":"2020-03-18","OBJECT_NAME":"STARLINK-1278","GP_ID":"201577386","TIME_SYSTEM":"UTC","CLASSIFICATION_TYPE":"U","SEMIMAJOR_AXIS":"6925.351","ECCENTRICITY":"0.00016220","SITE":"AFETR","NORAD_CAT_ID":"45408","RA_OF_ASC_NODE":"64.9979","ARG_OF_PERICENTER":"55.0977","REV_AT_EPOCH":"11529","ELEMENT_SET_NO":"999","COUNTRY_CODE":"US","MEAN_MOTION_DDOT":"0.0000000000000","MEAN_MOTION":"15.06399067","DECAY_DATE":null,"CENTER_NAME":"EARTH","EPOCH":"2022-04-18T20:25:20.038368","TLE_LINE1":"1 45408U 20019BA  22108.85092637  .00008669  00000-0  60018-3 0  9993","OBJECT_TYPE":"PAYLOAD","MEAN_MOTION_DOT":"0.00008669"},{"ECCENTRICITY":"0.00014980","RA_OF_ASC_NODE":"35.3182","NORAD_CAT_ID":"45409","SITE":"AFETR","LAUNCH_DATE":"2020-03-18","EPHEMERIS_TYPE":"0","SEMIMAJOR_AXIS":"6925.349","CLASSIFICATION_TYPE":"U","TIME_SYSTEM":"UTC","GP_ID":"201577636","OBJECT_NAME":"STARLINK-1282","CENTER_NAME":"EARTH","EPOCH":"2022-04-18T18:43:07.981536","DECAY_DATE":null,"MEAN_MOTION_DOT":"0.00002746","OBJECT_TYPE":"PAYLOAD","TLE_LINE1":"1 45409U 20019BB  22108.77995349  .00002746  00000-0  20316-3 0  9994","COUNTRY_CODE":"US","ELEMENT_SET_NO":"999","REV_AT_EPOCH":"11570","ARG_OF_PERICENTER":"66.3497","MEAN_MOTION":"15.06399837","MEAN_MOTION_DDOT":"0.0000000000000","INCLINATION":"53.0544","BSTAR":"0.00020316000000","APOAPSIS":"548.251","FILE":"3407402","MEAN_ANOMALY":"293.7649","REF_FRAME":"TEME","PERIAPSIS":"546.177","TLE_LINE2":"2 45409  53.0544  35.3182 0001498  66.3497 293.7649 15.06399837115709","RCS_SIZE":"LARGE","MEAN_ELEMENT_THEORY":"SGP4","OBJECT_ID":"2020-019BB","PERIOD":"95.592"}];
